[{"OBJECT_NAME":"AAC-AIS-SAT1","OBJECT_ID":"2023-001DC","EPOCH":"2026-03-09T23:01:17.922144","MEAN_MOTION":14.91136128,"ECCENTRICITY":0.00085003,"INCLINATION":97.9251,"RA_OF_ASC_NODE":145.2649,"ARG_OF_PERICENTER":240.5114,"MEAN_ANOMALY":119.5257,"EPHEMERIS_TYPE":0,"CLASSIFICATION_TYPE":"U","NORAD_CAT_ID":55107,"ELEMENT_SET_NO":999,"REV_AT_EPOCH":16349,"BSTAR":0.00074274767,"MEAN_MOTION_DOT":7.319e-5,"MEAN_MOTION_DDOT":0},{"OBJECT_NAME":"GRUS-3ALPHA","OBJECT_ID":"2025-135BD","EPOCH":"2026-03-09T23:10:13.111392","MEAN_MOTION":14.92826642,"ECCENTRICITY":0.00023593,"INCLINATION":97.7632,"RA_OF_ASC_NODE":184.4611,"ARG_OF_PERICENTER":350.2474,"MEAN_ANOMALY":9.8699,"EPHEMERIS_TYPE":0,"CLASSIFICATION_TYPE":"U","NORAD_CAT_ID":64579,"ELEMENT_SET_NO":999,"REV_AT_EPOCH":3907,"BSTAR":0.00014972204,"MEAN_MOTION_DOT":1.493e-5,"MEAN_MOTION_DDOT":0}]
